{"type": "FeatureCollection", "features": [ {"type": "Feature", "properties": {"norad_id": 33153, "name": "INTELSAT 25 (IS-25)", "group": "intelsat", "lat": -2.1150927563671726, "lon": -23.98471910008891, "alt_km": 35780.26394138964, "timestamp": "2025-12-05T19:30:25.234948+00:00", "meta": {"OBJECT_NAME": "INTELSAT 25 (IS-25)", "OBJECT_ID": "2008-034A", "EPOCH": "2025-12-05T03:16:26.232672", "MEAN_MOTION": 1.00270993, "ECCENTRICITY": 0.00054336, "INCLINATION": 2.2069, "RA_OF_ASC_NODE": 82.7344, "ARG_OF_PERICENTER": 179.3923, "MEAN_ANOMALY": 189.6903, "EPHEMERIS_TYPE": 0, "CLASSIFICATION_TYPE": "U", "NORAD_CAT_ID": 33153, "ELEMENT_SET_NO": 999, "REV_AT_EPOCH": 6375, "BSTAR": 0, "MEAN_MOTION_DOT": -2.13e-06, "MEAN_MOTION_DDOT": 0}, "tle": {"line1": "1 33153U 08034A   25339.13641473 -.00000213  00000+0  00000+0 0  9996", "line2": "2 33153   2.2069  82.7344 0005433 179.3923 189.6903  1.00270993 63751"}}, "geometry": {"type": "Point", "coordinates": [-23.98471910008891, -2.1150927563671726]}}, {"type": "Feature", "properties": {"norad_id": 33376, "name": "GALAXY 19 (G-19)", "group": "intelsat", "lat": -0.023765182293932426, "lon": -89.53828556278663, "alt_km": 35771.998709186344, "timestamp": "2025-12-05T19:30:25.234960+00:00", "meta": {"OBJECT_NAME": "GALAXY 19 (G-19)", "OBJECT_ID": "2008-045A", "EPOCH": "2025-12-05T04:26:38.705280", "MEAN_MOTION": 1.00270722, "ECCENTRICITY": 0.00034199, "INCLINATION": 0.0155, "RA_OF_ASC_NODE": 44.8359, "ARG_OF_PERICENTER": 219.5953, "MEAN_ANOMALY": 139.4813, "EPHEMERIS_TYPE": 0, "CLASSIFICATION_TYPE": "U", "NORAD_CAT_ID": 33376, "ELEMENT_SET_NO": 999, "REV_AT_EPOCH": 6295, "BSTAR": 0, "MEAN_MOTION_DOT": -1.27e-06, "MEAN_MOTION_DDOT": 0}, "tle": {"line1": "1 33376U 08045A   25339.18517020 -.00000127  00000+0  00000+0 0  9994", "line2": "2 33376   0.0155  44.8359 0003419 219.5953 139.4813  1.00270722 62951"}}, "geometry": {"type": "Point", "coordinates": [-89.53828556278663, -0.023765182293932426]}}, {"type": "Feature", "properties": {"norad_id": 35493, "name": "FM-5", "group": "intelsat", "lat": -0.015784506297458503, "lon": -78.69679380050086, "alt_km": 35786.560802582484, "timestamp": "2025-12-05T19:30:25.234971+00:00", "meta": {"OBJECT_NAME": "FM-5", "OBJECT_ID": "2009-034A", "EPOCH": "2025-12-05T03:00:50.227776", "MEAN_MOTION": 1.002701, "ECCENTRICITY": 4.595e-05, "INCLINATION": 0.0168, "RA_OF_ASC_NODE": 290.648, "ARG_OF_PERICENTER": 261.6028, "MEAN_ANOMALY": 200.9934, "EPHEMERIS_TYPE": 0, "CLASSIFICATION_TYPE": "U", "NORAD_CAT_ID": 35493, "ELEMENT_SET_NO": 999, "REV_AT_EPOCH": 4469, "BSTAR": 0, "MEAN_MOTION_DOT": -1.88e-06, "MEAN_MOTION_DDOT": 0}, "tle": {"line1": "1 35493U 09034A   25339.12558134 -.00000188  00000+0  00000+0 0  9997", "line2": "2 35493   0.0168 290.6480 0000459 261.6028 200.9934  1.00270100 44694"}}, "geometry": {"type": "Point", "coordinates": [-78.69679380050086, -0.015784506297458503]}}, {"type": "Feature", "properties": {"norad_id": 36097, "name": "INTELSAT 14 (IS-14)", "group": "intelsat", "lat": 0.001112900709352543, "lon": -37.5113350566643, "alt_km": 35781.9222400035, "timestamp": "2025-12-05T19:30:25.234983+00:00", "meta": {"OBJECT_NAME": "INTELSAT 14 (IS-14)", "OBJECT_ID": "2009-064A", "EPOCH": "2025-12-04T20:21:42.208416", "MEAN_MOTION": 1.00271046, "ECCENTRICITY": 0.0002724, "INCLINATION": 0.0122, "RA_OF_ASC_NODE": 313.6118, "ARG_OF_PERICENTER": 301.6263, "MEAN_ANOMALY": 79.11, "EPHEMERIS_TYPE": 0, "CLASSIFICATION_TYPE": "U", "NORAD_CAT_ID": 36097, "ELEMENT_SET_NO": 999, "REV_AT_EPOCH": 5865, "BSTAR": 0, "MEAN_MOTION_DOT": -2.6e-06, "MEAN_MOTION_DDOT": 0}, "tle": {"line1": "1 36097U 09064A   25338.84840519 -.00000260  00000+0  00000+0 0  9991", "line2": "2 36097   0.0122 313.6118 0002724 301.6263  79.1100  1.00271046 58654"}}, "geometry": {"type": "Point", "coordinates": [-37.5113350566643, 0.001112900709352543]}}, {"type": "Feature", "properties": {"norad_id": 36106, "name": "INTELSAT 15 (IS-15)", "group": "intelsat", "lat": 0.03278970352440964, "lon": 92.60427571451363, "alt_km": 35796.72077586369, "timestamp": "2025-12-05T19:30:25.234995+00:00", "meta": {"OBJECT_NAME": "INTELSAT 15 (IS-15)", "OBJECT_ID": "2009-067A", "EPOCH": "2025-12-05T03:42:38.812896", "MEAN_MOTION": 1.00270681, "ECCENTRICITY": 0.00025242, "INCLINATION": 0.0104, "RA_OF_ASC_NODE": 344.54, "ARG_OF_PERICENTER": 272.2827, "MEAN_ANOMALY": 318.2152, "EPHEMERIS_TYPE": 0, "CLASSIFICATION_TYPE": "U", "NORAD_CAT_ID": 36106, "ELEMENT_SET_NO": 999, "REV_AT_EPOCH": 3928, "BSTAR": 0, "MEAN_MOTION_DOT": -1.73e-06, "MEAN_MOTION_DDOT": 0}, "tle": {"line1": "1 36106U 09067A   25339.15461589 -.00000173  00000+0  00000+0 0  9999", "line2": "2 36106   0.0104 344.5400 0002524 272.2827 318.2152  1.00270681 39285"}}, "geometry": {"type": "Point", "coordinates": [92.60427571451363, 0.03278970352440964]}}, {"type": "Feature", "properties": {"norad_id": 36131, "name": "DIRECTV 12", "group": "intelsat", "lat": -0.01325143581387651, "lon": -95.27905617619388, "alt_km": 35786.7715790787, "timestamp": "2025-12-05T19:30:25.235007+00:00", "meta": {"OBJECT_NAME": "DIRECTV 12", "OBJECT_ID": "2009-075A", "EPOCH": "2025-12-05T04:26:38.705280", "MEAN_MOTION": 1.00268654, "ECCENTRICITY": 1.303e-05, "INCLINATION": 0.0519, "RA_OF_ASC_NODE": 136.4113, "ARG_OF_PERICENTER": 197.0915, "MEAN_ANOMALY": 64.6791, "EPHEMERIS_TYPE": 0, "CLASSIFICATION_TYPE": "U", "NORAD_CAT_ID": 36131, "ELEMENT_SET_NO": 999, "REV_AT_EPOCH": 4460, "BSTAR": 0, "MEAN_MOTION_DOT": -9.1e-07, "MEAN_MOTION_DDOT": 0}, "tle": {"line1": "1 36131U 09075A   25339.18517020 -.00000091  00000+0  00000+0 0  9990", "line2": "2 36131   0.0519 136.4113 0000130 197.0915  64.6791  1.00268654 44605"}}, "geometry": {"type": "Point", "coordinates": [-95.27905617619388, -0.01325143581387651]}}, {"type": "Feature", "properties": {"norad_id": 36397, "name": "INTELSAT 16 (IS-16)", "group": "intelsat", "lat": -0.020342122334838984, "lon": -68.728821554445, "alt_km": 35777.981312163196, "timestamp": "2025-12-05T19:30:25.235019+00:00", "meta": {"OBJECT_NAME": "INTELSAT 16 (IS-16)", "OBJECT_ID": "2010-006A", "EPOCH": "2025-12-05T03:42:35.567712", "MEAN_MOTION": 1.00271472, "ECCENTRICITY": 0.00023748, "INCLINATION": 0.0082, "RA_OF_ASC_NODE": 326.2313, "ARG_OF_PERICENTER": 290.1236, "MEAN_ANOMALY": 157.311, "EPHEMERIS_TYPE": 0, "CLASSIFICATION_TYPE": "U", "NORAD_CAT_ID": 36397, "ELEMENT_SET_NO": 999, "REV_AT_EPOCH": 5770, "BSTAR": 0, "MEAN_MOTION_DOT": -2.32e-06, "MEAN_MOTION_DDOT": 0}, "tle": {"line1": "1 36397U 10006A   25339.15457833 -.00000232  00000+0  00000+0 0  9999", "line2": "2 36397   0.0082 326.2313 0002374 290.1236 157.3110  1.00271472 57700"}}, "geometry": {"type": "Point", "coordinates": [-68.728821554445, -0.020342122334838984]}}, {"type": "Feature", "properties": {"norad_id": 37185, "name": "XM-5", "group": "intelsat", "lat": -0.0423249992788085, "lon": -107.72048475671991, "alt_km": 35786.66779794043, "timestamp": "2025-12-05T19:30:25.235031+00:00", "meta": {"OBJECT_NAME": "XM-5", "OBJECT_ID": "2010-053A", "EPOCH": "2025-12-05T06:18:01.333152", "MEAN_MOTION": 1.00271269, "ECCENTRICITY": 0.00013746, "INCLINATION": 0.0599, "RA_OF_ASC_NODE": 273.3534, "ARG_OF_PERICENTER": 244.4492, "MEAN_ANOMALY": 255.8355, "EPHEMERIS_TYPE": 0, "CLASSIFICATION_TYPE": "U", "NORAD_CAT_ID": 37185, "ELEMENT_SET_NO": 999, "REV_AT_EPOCH": 5553, "BSTAR": 0, "MEAN_MOTION_DOT": -1.1e-07, "MEAN_MOTION_DDOT": 0}, "tle": {"line1": "1 37185U 10053A   25339.26251543 -.00000011  00000+0  00000+0 0  9994", "line2": "2 37185   0.0599 273.3534 0001374 244.4492 255.8355  1.00271269 55539"}}, "geometry": {"type": "Point", "coordinates": [-107.72048475671991, -0.0423249992788085]}}, {"type": "Feature", "properties": {"norad_id": 37238, "name": "INTELSAT 17 (IS-17)", "group": "intelsat", "lat": 0.026006716954933656, "lon": 73.45169630350071, "alt_km": 35796.554377302724, "timestamp": "2025-12-05T19:30:25.235043+00:00", "meta": {"OBJECT_NAME": "INTELSAT 17 (IS-17)", "OBJECT_ID": "2010-065B", "EPOCH": "2025-12-05T02:01:33.409344", "MEAN_MOTION": 1.00271476, "ECCENTRICITY": 0.00024604, "INCLINATION": 0.0118, "RA_OF_ASC_NODE": 292.4833, "ARG_OF_PERICENTER": 318.9459, "MEAN_ANOMALY": 279.1053, "EPHEMERIS_TYPE": 0, "CLASSIFICATION_TYPE": "U", "NORAD_CAT_ID": 37238, "ELEMENT_SET_NO": 999, "REV_AT_EPOCH": 5130, "BSTAR": 0, "MEAN_MOTION_DOT": 1.1e-07, "MEAN_MOTION_DDOT": 0}, "tle": {"line1": "1 37238U 10065B   25339.08441446  .00000011  00000+0  00000+0 0  9998", "line2": "2 37238   0.0118 292.4833 0002460 318.9459 279.1053  1.00271476 51301"}}, "geometry": {"type": "Point", "coordinates": [73.45169630350071, 0.026006716954933656]}}, {"type": "Feature", "properties": {"norad_id": 37392, "name": "INTELSAT 28 (IS-28)", "group": "intelsat", "lat": -1.2304371347609457, "lon": -24.207603280268355, "alt_km": 35782.2246694683, "timestamp": "2025-12-05T19:30:25.235054+00:00", "meta": {"OBJECT_NAME": "INTELSAT 28 (IS-28)", "OBJECT_ID": "2011-016A", "EPOCH": "2025-12-05T03:16:26.232672", "MEAN_MOTION": 1.00270852, "ECCENTRICITY": 0.00041576, "INCLINATION": 1.3037, "RA_OF_ASC_NODE": 85.1519, "ARG_OF_PERICENTER": 174.9089, "MEAN_ANOMALY": 191.5421, "EPHEMERIS_TYPE": 0, "CLASSIFICATION_TYPE": "U", "NORAD_CAT_ID": 37392, "ELEMENT_SET_NO": 999, "REV_AT_EPOCH": 5134, "BSTAR": 0, "MEAN_MOTION_DOT": -2.13e-06, "MEAN_MOTION_DDOT": 0}, "tle": {"line1": "1 37392U 11016A   25339.13641473 -.00000213  00000+0  00000+0 0  9999", "line2": "2 37392   1.3037  85.1519 0004157 174.9089 191.5421  1.00270852 51345"}}, "geometry": {"type": "Point", "coordinates": [-24.207603280268355, -1.2304371347609457]}}]}